NORAD_CAT_ID,OBJECT_NAME,OBJECT_TYPE,EPOCH,MEAN_MOTION,ECCENTRICITY,INCLINATION,RA_OF_ASC_NODE,ARG_OF_PERICENTER,MEAN_ANOMALY,BSTAR,MEAN_MOTION_DOT,MEAN_MOTION_DDOT,TLE_LINE0,TLE_LINE1,TLE_LINE2,SEMIMAJOR_AXIS,PERIOD,APOGEE,PERIGEE,DECAYED
52121.0,STARLINK-3678,PAYLOAD,2022-06-22 22:00:00,15.23644274,0.0001801,53.2172,35.9702,46.5463,150.8106,-0.031932,-0.00722953,0.0,0 STARLINK-3678,1 52121U 22029AK  22173.91667824 -.00722953  00000-0 -31932-1 0  9993,2 52121  53.2172  35.9702 0001801  46.5463 150.8106 15.23644274  1300,6872.996,94.51,496.099,493.624,0.0
52121.0,STARLINK-3678,PAYLOAD,2022-06-23 06:00:00,15.2313604,0.0001426,53.2173,34.4373,67.8029,158.6291,-0.032569,-0.00726004,0.0,0 STARLINK-3678,1 52121U 22029AK  22174.25001157 -.00726004  00000-0 -32569-1 0  9990,2 52121  53.2173  34.4373 0001426  67.8029 158.6291 15.23136040 16287,6874.525,94.542,497.371,495.41,0.0
52121.0,STARLINK-3678,PAYLOAD,2022-06-23 14:00:01,15.22624461,0.0001561999999999,53.2173,32.905,55.7727,199.1225,-0.032915,-0.00722867,0.0,0 STARLINK-3678,1 52121U 22029AK  22174.58334491 -.00722867  00000-0 -32915-1 0  9994,2 52121  53.2173  32.9050 0001562  55.7727 199.1225 15.22624461  1306,6876.065,94.574,499.004,496.856,0.0
52121.0,STARLINK-3678,PAYLOAD,2022-06-23 22:00:00,15.221146,0.0001713,53.2174,31.3772,46.2813,236.4621,-0.033429,-0.00723129,0.0,0 STARLINK-3678,1 52121U 22029AK  22174.91667824 -.00723129  00000-0 -33429-1 0  9993,2 52121  53.2174  31.3772 0001713  46.2813 236.4621 15.22114600  1304,6877.6,94.605,500.644,498.287,0.0
52121.0,STARLINK-3678,PAYLOAD,2022-06-24 06:00:02,15.21606628,0.000138,53.2173,29.8476,59.2562,250.7875,-0.034136,-0.00727081,0.0,0 STARLINK-3678,1 52121U 22029AK  22175.25002315 -.00727081  00000-0 -34136-1 0  9996,2 52121  53.2173  29.8476 0001380  59.2562 250.7875 15.21606628 16447,6879.130999999999,94.637,501.945,500.047,0.0
52121.0,STARLINK-3678,PAYLOAD,2022-06-24 14:00:01,15.21093208,0.0001473,53.2175,28.3192,53.5372,283.0684,-0.034313,-0.00720354,0.0,0 STARLINK-3678,1 52121U 22029AK  22175.58334491 -.00720354  00000-0 -34313-1 0  9998,2 52121  53.2175  28.3192 0001473  53.5372 283.0684 15.21093208  1307,6880.679,94.669,503.557,501.53,0.0
52121.0,STARLINK-3678,PAYLOAD,2022-06-24 22:00:01,15.20586353,0.0001695,53.2174,26.7949,41.6019,321.0759,-0.035122,-0.00726043,0.0,0 STARLINK-3678,1 52121U 22029AK  22175.91668981 -.00726043  00000-0 -35122-1 0  9999,2 52121  53.2174  26.7949 0001695  41.6019 321.0759 15.20586353  1303,6882.208000000001,94.7,505.239,502.906,0.0
52121.0,STARLINK-3678,PAYLOAD,2022-06-25 14:00:01,15.19563544,0.0001578,53.2174,23.7441,46.458,6.3424,-0.035909,-0.00720768,0.0,0 STARLINK-3678,1 52121U 22029AK  22176.58334491 -.00720768  00000-0 -35909-1 0  9990,2 52121  53.2174  23.7441 0001578  46.4580   6.3424 15.19563544  1300,6885.295999999999,94.764,508.247,506.074,0.0
52121.0,STARLINK-3678,PAYLOAD,2022-06-25 16:00:00,15.19437018,0.0001702,53.2175,23.3638,46.3253,102.5753,-0.036158,-0.00722948,0.0,0 STARLINK-3678,1 52121U 22029AK  22176.66667824 -.00722948  00000-0 -36158-1 0  9997,2 52121  53.2175  23.3638 0001702  46.3253 102.5753 15.19437018 16654,6885.678000000001,94.772,508.715,506.371,0.0
52121.0,STARLINK-3678,PAYLOAD,2022-06-25 22:00:00,15.19056686,0.0001763,53.2174,22.2234,40.8639,36.107,-0.036752,-0.00726476,0.0,0 STARLINK-3678,1 52121U 22029AK  22176.91667824 -.00726476  00000-0 -36752-1 0  9995,2 52121  53.2174  22.2234 0001763  40.8639  36.1070 15.19056686  1305,6886.8269999999975,94.796,509.906,507.478,0.0
52121.0,STARLINK-3678,PAYLOAD,2022-06-26 14:00:01,15.18034292,0.0001735,53.2175,19.1796,44.1492,79.39399999999998,-0.037604,-0.00721902,0.0,0 STARLINK-3678,1 52121U 22029AK  22177.58335648 -.00721902  00000-0 -37604-1 0  9991,2 52121  53.2175  19.1796 0001735  44.1492  79.3940 15.18034292  1300,6889.919,94.86,512.979,510.589,0.0
52121.0,STARLINK-3678,PAYLOAD,2022-06-26 22:00:00,15.1752526,0.0001844,53.2174,17.6625,43.3005,102.5124,-0.038266,-0.0072376,0.0,0 STARLINK-3678,1 52121U 22029AK  22177.91667824 -.00723760  00000-0 -38266-1 0  9991,2 52121  53.2174  17.6625 0001844  43.3005 102.5124 15.17525260 16842,6891.46,94.891,514.596,512.054,0.0
52121.0,STARLINK-3678,PAYLOAD,2022-06-27 14:00:01,15.16504618,0.0001744,53.2175,14.6261,48.9536,139.6908,-0.039313,-0.00722142,0.0,0 STARLINK-3678,1 52121U 22029AK  22178.58334491 -.00722142  00000-0 -39313-1 0  9993,2 52121  53.2175  14.6261 0001744  48.9536 139.6908 15.16504618  1304,6894.551,94.955,517.619,515.214,0.0
52121.0,STARLINK-3678,PAYLOAD,2022-06-27 22:00:00,15.15993975,0.0001876,53.2174,13.1123,44.4702,164.6695,-0.039829,-0.00721083,0.0,0 STARLINK-3678,1 52121U 22029AK  22178.91667824 -.00721083  00000-0 -39829-1 0  9994,2 52121  53.2174  13.1123 0001876  44.4702 164.6695 15.15993975  1304,6896.1,94.987,519.258,516.6709999999998,0.0
52121.0,STARLINK-3678,PAYLOAD,2022-06-28 06:00:00,15.15486416,0.0001618,53.2174,11.5965,53.2662,175.7568,-0.040674,-0.00725431,0.0,0 STARLINK-3678,1 52121U 22029AK  22179.25001157 -.00725431  00000-0 -40674-1 0  9994,2 52121  53.2174  11.5965 0001618  53.2662 175.7568 15.15486416 17044,6897.639,95.019,520.62,518.388,0.0
52121.0,STARLINK-3678,PAYLOAD,2022-06-28 14:00:01,15.14974609,0.000174,53.2174,10.0831,48.0133,200.2806,-0.041049,-0.00721796,0.0,0 STARLINK-3678,1 52121U 22029AK  22179.58334491 -.00721796  00000-0 -41049-1 0  9997,2 52121  53.2174  10.0831 0001740  48.0133 200.2806 15.14974609  1307,6899.193,95.051,522.258,519.857,0.0
52121.0,STARLINK-3678,PAYLOAD,2022-06-28 22:00:00,15.1446374,0.0001804,53.2174,8.5727,44.7877,222.1633,-0.041555,-0.0072028,0.0,0 STARLINK-3678,1 52121U 22029AK  22179.91667824 -.00720280  00000-0 -41555-1 0  9992,2 52121  53.2174   8.5727 0001804  44.7877 222.1633 15.14463740  1302,6900.744000000002,95.083,523.854,521.364,0.0
52121.0,STARLINK-3678,PAYLOAD,2022-06-29 14:00:01,15.134445800000002,0.0001691,53.2175,5.5506,44.5664,257.9148,-0.042864,-0.0072173,0.0,0 STARLINK-3678,1 52121U 22029AK  22180.58334491 -.00721730  00000-0 -42864-1 0  9993,2 52121  53.2175   5.5506 0001691  44.5664 257.9148 15.13444580 17259,6903.842,95.147,526.874,524.539,0.0
52121.0,STARLINK-3678,PAYLOAD,2022-06-29 22:00:00,15.12933565,0.0001705,53.2174,4.0438,43.4376,275.8622,-0.043375,-0.00720019,0.0,0 STARLINK-3678,1 52121U 22029AK  22180.91667824 -.00720019  00000-0 -43375-1 0  9996,2 52121  53.2174   4.0438 0001705  43.4376 275.8622 15.12933565  1300,6905.396,95.179,528.439,526.0840000000002,0.0
52121.0,STARLINK-3678,PAYLOAD,2022-06-30 14:00:01,15.11914975,0.0001686,53.2176,1.0289,42.1162,308.9843,-0.044791,-0.00722398,0.0,0 STARLINK-3678,1 52121U 22029AK  22181.58334491 -.00722398  00000-0 -44791-1 0  9996,2 52121  53.2176   1.0289 0001686  42.1162 308.9843 15.11914975  1306,6908.496999999999,95.243,531.5269999999998,529.198,0.0
52121.0,STARLINK-3678,PAYLOAD,2022-06-30 22:00:00,15.11403297,0.0001781,53.2174,359.5256,39.1706,326.9105,-0.045252,-0.0071968,0.0,0 STARLINK-3678,1 52121U 22029AK  22181.91667824 -.00719680  00000-0 -45252-1 0  9995,2 52121  53.2174 359.5256 0001781  39.1706 326.9105 15.11403297  1306,6910.056,95.276,533.1519999999998,530.691,0.0
52121.0,STARLINK-3678,PAYLOAD,2022-07-01 14:00:01,15.10385192,0.0001716,53.2177,356.51800000000014,41.6925,352.5121,-0.046777,-0.00722908,0.0,0 STARLINK-3678,1 52121U 22029AK  22182.58334491 -.00722908  00000-0 -46777-1 0  9990,2 52121  53.2177 356.5180 0001716  41.6925 352.5121 15.10385192  1306,6913.161,95.34,536.2130000000002,533.84,0.0
52121.0,STARLINK-3678,PAYLOAD,2022-07-01 22:00:00,15.09872864,0.0001579,53.2174,355.0181,49.9199,357.4273,-0.047179,-0.00719103,0.0,0 STARLINK-3678,1 52121U 22029AK  22182.91667824 -.00719103  00000-0 -47179-1 0  9996,2 52121  53.2174 355.0181 0001579  49.9199 357.4273 15.09872864  1306,6914.725,95.372,537.682,535.498,0.0
52121.0,STARLINK-3678,PAYLOAD,2022-07-02 14:00:01,15.08874739,0.0001694,53.2177,352.0198,51.0288,20.8069,-0.0039583,-0.00062796,0.0,0 STARLINK-3678,1 52121U 22029AK  22183.58334491 -.00062796  00000-0 -39583-2 0  9991,2 52121  53.2177 352.0198 0001694  51.0288  20.8069 15.08874739  1301,6917.774,95.435,540.811,538.467,0.0
52121.0,STARLINK-3678,PAYLOAD,2022-07-02 22:00:00,15.08843045,0.0001696999999999,53.2173,350.5259,48.3167,35.1239,-0.00059173,-9.694e-05,0.0,0 STARLINK-3678,1 52121U 22029AK  22183.91667824 -.00009694  00000-0 -59173-3 0  9993,2 52121  53.2173 350.5259 0001697  48.3167  35.1239 15.08843045  1300,6917.871,95.437,540.91,538.562,0.0
52121.0,STARLINK-3678,PAYLOAD,2022-07-03 14:00:01,15.08890763,0.0001641,53.2163,347.5398,52.9006,53.7371,-0.0049117,-0.00077723,0.0,0 STARLINK-3678,1 52121U 22029AK  22184.58334491 -.00077723  00000-0 -49117-2 0  9992,2 52121  53.2163 347.5398 0001641  52.9006  53.7371 15.08890763  1303,6917.725,95.434,540.725,538.455,0.0
52121.0,STARLINK-3678,PAYLOAD,2022-07-03 22:00:00,15.08816607,0.0001759,53.2158,346.0446,46.5742,71.6924,-0.00063118,-0.00010313,0.0,0 STARLINK-3678,1 52121U 22029AK  22184.91667824 -.00010313  00000-0 -63118-3 0  9998,2 52121  53.2158 346.0446 0001759  46.5742  71.6924 15.08816607 17902,6917.9519999999975,95.439,541.034,538.6,0.0
52121.0,STARLINK-3678,PAYLOAD,2022-07-04 14:00:01,15.08820257,0.0001706,53.216,343.051,54.2162,87.1557,-0.0016082999999999,-0.00025779,0.0,0 STARLINK-3678,1 52121U 22029AK  22185.58334491 -.00025779  00000-0 -16083-2 0  9993,2 52121  53.2160 343.0510 0001706  54.2162  87.1557 15.08820257  1305,6917.941,95.439,540.986,538.626,0.0
52121.0,STARLINK-3678,PAYLOAD,2022-07-04 22:00:00,15.0879283,0.0001776999999999,53.2156,341.5557,46.3518,106.5875,0.0054007,0.0008661,0.0,0 STARLINK-3678,1 52121U 22029AK  22185.91667824  .00086610  00000-0  54007-2 0  9996,2 52121  53.2156 341.5557 0001777  46.3518 106.5875 15.08792830  1303,6918.025,95.441,541.119,538.66,0.0
